#dP2021  5 11  6  0  0.00000000      96 __u+U ITR00 EXT  IAC
## 2157 194400.00000000   900.00000000 59345 0.2500000000000
+  116   C06C07C08C09C10C11C12C13C14C16C19C20C21C22C23C24C25
+        C26C27C28C29C30C32C33C34C35C36C37C38C39C40C41C42C43
+        C44C45C46E01E02E03E04E05E07E08E09E11E12E13E14E15E18
+        E19E21E24E25E26E27E30E31E33E36G01G02G03G04G05G06G07
+        G08G09G10G12G13G14G15G16G17G18G19G20G21G22G23G24G25
+        G26G27G28G29G30G31G32J01J02J03R01R02R03R04R05R07R08
+        R09R11R12R13R14R15R16R17R18R19R20R21R22R24  0  0  0
++        10  9  8 10  8  9  9 10  8 10  8  7  9  8  9  8  7
++         8  9  7  8 10  8  7 10  9  9  9 10 10 12  9  8  9
++         9 10  9  8  9  8  8  8  8  8  8  9  9  9  8  9  8
++         7  8  8  8  8  8  8  8  8  8  8  7  7  9  8  7  9
++         7  8  7  8  8  8  7  8  8  8  7  9  8  9  7  8  7
++         8  8  8  8  8  8  7 10 10  8  9 10  9  9  8  8  8
++        10  8  9  9  8  9  9 10  9  9  9  7  8  9  0  0  0
%c M  cc GPS ccc cccc cccc cccc cccc ccccc ccccc ccccc ccccc
%c cc cc ccc ccc cccc cccc cccc cccc ccccc ccccc ccccc ccccc
%f  0.0000000  0.000000000  0.00000000000  0.000000000000000
%f  0.0000000  0.000000000  0.00000000000  0.000000000000000
%i    0    0    0    0      0      0      0      0         0
%i    0    0    0    0      0      0      0      0         0
/* IAC                                ULTRA-RAPID PREDICTION
/* S/V CLOCKS ARE ALIGNED TO GNSS TIME                      
/* G:C1WC2W R:C1PC2P E:C1XC5X C:C2IC6I J:C1CC2S             
/* PCV:IGS14_2148 OL/AL:FES2004  NONE     YN ORB:CoN CLK:CoN
*  2021 05 12  4 45  0.00000000
PC06  -7523.086287  28520.669615 -29468.547672    374.978810
PC07 -21640.328288  24460.761390  26655.472602   -213.228521
PC08 -19895.001701  37379.270464   1419.993029   -890.271192
PC09   4612.133040  36812.876060 -19308.391325    530.201587
PC10  -4853.917527  26926.471950  32224.857468    -43.946130
PC11 -16600.709828   -914.074733  22461.783325    335.913330
PC12 -17169.084621 -18768.139053  11488.988097    887.718979
PC13 -10940.257832  39249.270394 -11219.488051    257.313099
PC14 -27428.994044   1449.865397  -4710.751947    707.192768
PC16  -4206.043538  30676.957261 -28387.887008   -832.744568
PC19  23194.909895  -7805.811444  13462.577970    831.641594
PC20  27474.635084   3942.744694  -3045.057178   -920.877953
PC21 -15411.051353 -13979.791442  18606.958706   -942.072429
PC22   5387.935783 -15378.926996  22666.672442   -957.324631
PC23 -10225.975092  24762.539225   7810.605244   -905.262388
PC24 -17765.508131  -1264.370144 -21495.693349   -847.080103
PC25 -19413.705111  17813.472707  -9228.298630   -918.410835
PC26  -6417.882634 -17395.146309 -20853.823660    908.316419
PC27  13341.932792  24359.329866  -2621.920878    530.229420
PC28    214.743609  23929.715187  14356.349892    -75.485645
PC29  12642.913027  -9943.573422 -22814.323228    391.089028
PC30  19005.689842  10318.120647 -17631.251838    466.645065
PC32  15568.362662  13843.844802 -18552.094582   -934.694058
PC33 -23184.049438   7879.252523 -13352.592751   -938.909685
PC34 -18981.207208  -9670.450988  18028.315840   -675.463742
PC35   -747.120988 -23801.747892 -14586.972572   -284.948129
PC36  19910.564850 -17065.289883   9572.665928   -727.104082
PC37   5249.334373  18219.254372  20496.877016   -894.997921
PC38 -16370.045313  38783.497602  -3332.568177    148.158961
PC39     20.235704  32214.810563 -27097.800307     31.021284
PC40 -12025.605159  21615.975490  34133.240797    160.094876
PC41  -5660.758715  15353.704044 -22549.968644   -944.653873
PC42 -27271.796857  -4466.697198   3852.150090   -915.990027
PC43 -13098.998279   9382.687106  22772.820514   -726.282348
PC44 -14049.570178 -24017.010766   2368.565691    183.482153
PC45  10127.304642 -24752.746983  -7934.481015    437.820370
PC46  18074.402640    190.423782  21258.347180    274.990771
PE01  13021.271161 -20245.266870 -17226.044463  -1105.945567
PE02 -12919.420083  20249.314954  17302.897684    218.464074
PE03  -1837.694154  18193.629466 -23272.992358   -429.963962
PE04 -17386.213919 -20662.572303  12131.810353   -769.082708
PE05 -20314.608587   4992.239717 -20931.538982   -281.669278
PE07  26744.325195  10955.916514   6435.793510   -536.611295
PE08  17809.991808  20442.951376 -11885.699247   6003.511249
PE09 -26769.297821 -10744.819022  -6594.416059   5670.766566
PE11 -15495.375438  -8004.676723  23910.663990   5990.841831
PE12  -7325.916139 -26125.408595  11857.945725   5215.019183
PE13  15372.396594   8405.333211 -23854.310981    416.277637
PE14  -5122.787472 -23983.168587 -15755.806803  -1428.013420
PE15   7401.222840  26058.769655 -11914.975682    814.745910
PE18  18792.164651  21511.588190   1167.605412  -1563.002242
PE19   4177.762166 -17021.750050  23864.803115    274.718283
PE21  25807.287907 -14487.418260   -528.414820   -664.411291
PE24 -23787.118212   -723.111539 -17629.242566   -895.418993
PE25 -25874.861414  14375.054400    333.703127   -533.564656
PE26  14247.665029 -14914.357527 -21230.973993   1820.786535
PE27  24160.051658    -59.626527  17098.320654    -30.519973
PE30   7301.853265  14900.537319  24500.932885   2952.519902
PE31  -8327.053767 -14292.959253 -24542.202887   -481.071781
PE33   4906.770312 -28344.358318  -7006.028505   -468.502116
PE36 -14279.551780  14142.591643  21727.443636   -205.905828
PG01 -13492.420078  17882.559633  13732.386266    691.572338
PG02  13874.083763   6406.241368 -21068.692050   -603.485647
PG03 -21644.370556  12864.564624  -8351.802985   -161.595984
PG04 -12673.628707   8776.044519 -21625.041255   -195.911311
PG05  25487.268912  -3917.349737  -6917.821885    -41.681592
PG06   7732.393824  18453.523712 -17379.649109     14.944697
PG07  -6549.706730  25423.512806   -985.819581    148.403187
PG08 -19111.710442    190.142119  18560.534306    -20.875117
PG09  -2006.217832  17298.271071 -20107.846033   -344.935833
PG10  -6044.053442 -13892.451965  21941.337561   -120.210133
PG12  23548.591933 -10296.355341  -6653.230767    -39.915275
PG13  20504.614676   9502.041250  13929.615538    130.968295
PG14   4787.177961  14535.766678  21698.951798     86.939602
PG15  19241.175183  -2631.135932  17903.397368   -149.995323
PG16 -24674.499760  -1876.154501 -10495.449565   -323.807524
PG17  11377.153819  21794.176831  10471.597183    441.009851
PG18   4710.946999 -26001.280949   2297.663445    350.580448
PG19  17079.548004  20377.032423   1060.659581     -1.112707
PG20  22601.194848 -13300.088132   2860.527545    522.276561
PG21 -15424.873847  10176.527273  19612.259488    117.518754
PG22 -24808.598834   8993.959770   2056.810131   -616.431263
PG23   6716.363154 -16664.614646  19524.705103    107.391006
PG24  14751.917068 -13393.022963  17125.189091     72.290672
PG25  13536.827410 -16199.987851 -16213.672272    135.579320
PG26 -18963.149553  -6657.065576 -17553.375280     84.179591
PG27 -22109.657302 -10552.666323  10536.121100   -128.565244
PG28  10142.576018  12773.332243  21479.981252    572.710844
PG29   3069.603855 -16623.700742 -20522.025955   -345.570433
PG30   2517.805622  23881.212173  11147.088613   -424.921134
PG31  -9876.581284 -15685.575234 -18931.675914   -116.792860
PG32 -14494.210358 -20848.068328   8198.166449     21.358210
PJ01 -30536.174922  14431.481923 -20604.469173   -377.630817
PJ02 -28977.777689  30323.669432   9744.676676      7.876574
PJ03 -25606.487503  23838.682397  28596.310594     -5.257600
PR01 -10825.830948   8130.339748 -21607.174230     79.306698
PR02  11279.367613  12397.341110 -19159.065054    478.262154
PR03  23569.209747   8462.214500  -4667.631705     35.786752
PR04  22377.428015    -57.190345  12273.388955     86.397792
PR05   8742.912529  -8547.278913  22400.217684     71.561839
PR07 -23794.337835  -8292.320580   4148.893429    -42.489944
PR08 -22396.316388    100.917428 -12164.954152    -58.964332
PR09    910.538663 -15382.579890 -20334.274615     -7.575632
PR11 -19212.627376  12502.653988 -11167.522683     -3.647540
PR12 -14669.873392  19708.153998   6919.532300    228.197749
PR13  -1572.416443  15538.576568  20149.819256    -54.598244
PR14  13005.685710   1780.392649  21883.918388     64.159435
PR15  19481.694498 -12493.171028  10746.385257    103.886805
PR16  13506.101122 -20076.069454  -7894.098511    -15.003849
PR17  11940.378764  15149.559810 -16705.691228    423.310709
PR18  10209.177550  -2219.307574 -23259.670349     76.198936
PR19   4019.965403 -17637.849860 -17988.557015   -143.353942
PR20  -5883.425091 -24846.821440     63.446551    -48.956646
PR21 -11929.984548 -14094.392741  17583.515261   -208.307422
PR22  -9910.345186   3148.190119  23272.334962   -112.283591
PR24   6578.907257  24637.676998   -766.897830     42.304746
EOF
